     2.10           NAVIGATION DATA                         RINEX VERSION / TYPE
GS10 V12.00                             2023 11 28 10:52    PGM / RUN BY / DATE 
    2.9802D-08  7.4506D-09 -1.1921D-07  1.1921D-07          ION ALPHA           
    1.4950D+05 -1.8022D+05  0.0000D+00  1.3107D+05          ION BETA            
    2.793967723846D-09 8.881784197001D-15   405504     2290 DELTA-UTC: A0,A1,T,W
    18                                                      LEAP SECONDS        
                                                            END OF HEADER       
31 23 11 28 08 00  0.0-2.261316403747D-04-3.410605131648D-13 0.000000000000D+00
    3.400000000000D+01-1.646875000000D+01 4.957349350642D-09 1.718334374152D+00
   -8.568167686462D-07 1.062029064633D-02 6.824731826782D-06 5.153643447876D+03
    2.016000000000D+05-1.844018697739D-07 2.158979093482D+00 2.607703208923D-08
    9.540521253805D-01 2.522500000000D+02 6.305611086469D-01-8.104980462112D-09
   -5.978820470442D-10 1.000000000000D+00 2.290000000000D+03 0.000000000000D+00
    2.000000000000D+00 0.000000000000D+00-1.350417733192D-08 3.400000000000D+01
    1.944000000000D+05 0.000000000000D+00
32 23 11 28 06 00  0.0-5.906899459660D-04-4.092726157978D-12 0.000000000000D+00
    7.100000000000D+01 9.843750000000D+00 4.722339561541D-09-1.177061055832D+00
    4.861503839493D-07 7.162615773268D-03 7.275491952896D-06 5.153595922470D+03
    1.944000000000D+05 1.639127731323D-07 1.079722746855D+00 1.024454832077D-07
    9.604121397863D-01 2.414687500000D+02-2.219852049565D+00-7.958188633357D-09
    4.178745490094D-10 1.000000000000D+00 2.290000000000D+03 0.000000000000D+00
    2.000000000000D+00 0.000000000000D+00 4.656612873077D-10 7.100000000000D+01
    1.872000000000D+05 0.000000000000D+00
24 23 11 28 12 00  0.0-3.815754316747D-04-8.526512829121D-12 0.000000000000D+00
    8.500000000000D+01-1.353125000000D+01 5.689879863478D-09-5.739005783598D-01
   -5.848705768585D-07 1.491541007999D-02 5.459412932396D-06 5.153615041733D+03
    2.160000000000D+05-6.519258022308D-08 2.044208382033D+00 2.495944499969D-07
    9.335565874991D-01 2.585937500000D+02 9.471836167424D-01-8.662860842926D-09
   -4.614477925813D-10 1.000000000000D+00 2.290000000000D+03 0.000000000000D+00
    2.000000000000D+00 0.000000000000D+00 2.328306436539D-09 8.500000000000D+01
    2.127900000000D+05 0.000000000000D+00
23 23 11 28 13 14 40.0 1.066210679710D-04 6.593836587854D-12 0.000000000000D+00
    3.900000000000D+01-1.175937500000D+02 3.826230806443D-09-1.186499718430D+00
   -6.174668669701D-06 3.885370097123D-03 1.024454832077D-05 5.153700988770D+03
    2.204800000000D+05 1.676380634308D-08 1.345998594244D-02-8.568167686462D-08
    9.769701722149D-01 1.887187500000D+02-3.029124265059D+00-7.547457239032D-09
    2.457245211269D-10 1.000000000000D+00 2.290000000000D+03 0.000000000000D+00
    2.000000000000D+00 0.000000000000D+00-8.381903171539D-09 5.510000000000D+02
    2.136600000000D+05 0.000000000000D+00
 5 23 11 28 14 00  0.0-1.520989462733D-04-1.477928890381D-12 0.000000000000D+00
    9.000000000000D+00-1.140937500000D+02 3.996952203388D-09 2.611979191738D+00
   -5.962327122688D-06 5.859204917215D-03 9.749084711075D-06 5.153771829605D+03
    2.232000000000D+05 4.470348358154D-08-4.828399156491D-03-5.774199962616D-08
    9.691287279644D-01 1.978750000000D+02 1.238824776882D+00-7.556743340121D-09
    1.878649681871D-10 1.000000000000D+00 2.290000000000D+03 0.000000000000D+00
    2.000000000000D+00 0.000000000000D+00-1.117587089539D-08 9.000000000000D+00
    2.160000000000D+05 0.000000000000D+00
20 23 11 28 14 00  0.0 3.993432037532D-04-1.932676241267D-12 0.000000000000D+00
    8.400000000000D+01-1.251875000000D+02 4.451613999020D-09 9.310119044057D-01
   -6.677582859993D-06 4.083248786628D-03 8.635222911835D-06 5.153666347504D+03
    2.232000000000D+05-4.842877388000D-08-1.304375239436D-01 7.450580596924D-08
    9.516249219234D-01 2.107812500000D+02-2.750129304644D+00-7.928544541419D-09
    6.428839215530D-11 1.000000000000D+00 2.290000000000D+03 0.000000000000D+00
    2.000000000000D+00 0.000000000000D+00-8.381903171539D-09 8.400000000000D+01
    2.160000000000D+05 0.000000000000D+00
15 23 11 28 14 00  0.0 1.016156747937D-04 3.751665644813D-12 0.000000000000D+00
    9.200000000000D+01-1.312500000000D+00 5.402010729716D-09 1.253109747679D+00
   -1.117587089539D-07 1.545938674826D-02 8.750706911087D-06 5.153571163177D+03
    2.232000000000D+05-3.725290298462D-07 9.423369457391D-01-1.322478055954D-07
    9.336102765926D-01 2.014062500000D+02 1.275885746631D+00-8.416064848597D-09
    6.164542492224D-10 1.000000000000D+00 2.290000000000D+03 0.000000000000D+00
    2.000000000000D+00 0.000000000000D+00-1.024454832077D-08 9.200000000000D+01
    2.160000000000D+05 0.000000000000D+00
18 23 11 28 14 00  0.0-4.918063059449D-04-1.045918907039D-11 0.000000000000D+00
    2.360000000000D+02-9.115625000000D+01 4.279106813403D-09 2.179086143227D-01
   -4.708766937256D-06 3.832690883428D-03 1.354143023491D-06 5.153643413544D+03
    2.232000000000D+05 6.519258022308D-08-9.863497709585D-01 5.587935447693D-09
    9.743011703431D-01 3.590625000000D+02-3.030351881542D+00-8.242843347511D-09
   -1.407201472733D-10 1.000000000000D+00 2.290000000000D+03 0.000000000000D+00
    2.000000000000D+00 0.000000000000D+00-8.381903171539D-09 2.360000000000D+02
    2.160000000000D+05 0.000000000000D+00
24 23 11 28 14 00  0.0-3.816373646259D-04-8.526512829121D-12 0.000000000000D+00
    8.600000000000D+01-1.181250000000D+01 5.720595428619D-09 4.763259847063D-01
   -4.488974809647D-07 1.491565117612D-02 5.522742867470D-06 5.153615505219D+03
    2.232000000000D+05-1.136213541031D-07 2.044145657957D+00 1.359730958939D-07
    9.335532096212D-01 2.583437500000D+02 9.471822971903D-01-8.703576824624D-09
   -4.675194740627D-10 1.000000000000D+00 2.290000000000D+03 0.000000000000D+00
    2.000000000000D+00 0.000000000000D+00 2.328306436539D-09 8.600000000000D+01
    2.160000000000D+05 0.000000000000D+00
14 23 11 28 14 00  0.0 2.559837885201D-04 1.068656274583D-11 0.000000000000D+00
    1.770000000000D+02 8.228125000000D+01 4.397326023422D-09-1.280232894016D+00
    4.259869456291D-06 3.717896295711D-03 1.142174005508D-05 5.153684829712D+03
    2.232000000000D+05-2.980232238770D-08-3.071811913250D+00-1.415610313416D-07
    9.476308585947D-01 1.555625000000D+02-2.955676948769D+00-7.736750838156D-09
   -4.653765276575D-10 1.000000000000D+00 2.290000000000D+03 0.000000000000D+00
    2.000000000000D+00 0.000000000000D+00-7.916241884232D-09 9.450000000000D+02
    2.160000000000D+05 0.000000000000D+00
23 23 11 28 14 00  0.0 1.066392287612D-04 6.593836587854D-12 0.000000000000D+00
    4.000000000000D+01-1.085000000000D+02 3.873375627357D-09-7.900243389991D-01
   -5.682930350304D-06 3.884733188897D-03 1.015514135361D-05 5.153698854446D+03
    2.232000000000D+05 8.568167686462D-08 1.343961627111D-02-5.401670932770D-08
    9.769706974024D-01 1.904687500000D+02-3.028872619742D+00-7.581744381514D-09
    2.103659054415D-10 1.000000000000D+00 2.290000000000D+03 0.000000000000D+00
    2.000000000000D+00 0.000000000000D+00-8.381903171539D-09 5.520000000000D+02
    2.160000000000D+05 0.000000000000D+00
30 23 11 28 14 00  0.0-4.633907228708D-04 4.092726157978D-12 0.000000000000D+00
    1.100000000000D+01-1.509375000000D+01 5.497014687012D-09-6.567164161776D-01
   -8.568167686462D-07 6.607927964069D-03 5.865469574928D-06 5.153719255447D+03
    2.232000000000D+05 6.891787052155D-08 2.141386061142D+00 9.499490261078D-08
    9.351248400688D-01 2.511250000000D+02-2.552976869003D+00-8.387135072127D-09
   -4.768055751518D-10 1.000000000000D+00 2.290000000000D+03 0.000000000000D+00
    2.000000000000D+00 0.000000000000D+00 3.725290298462D-09 1.100000000000D+01
    2.160000000000D+05 0.000000000000D+00
 8 23 11 28 14 00  0.0-1.542833633721D-04-1.818989403546D-12 0.000000000000D+00
    7.500000000000D+01 1.538125000000D+02 4.556618372874D-09 2.248910632132D+00
    7.843598723412D-06 8.969946531579D-03 3.244727849960D-06 5.153791618347D+03
    2.232000000000D+05-1.564621925354D-07-2.083014013255D+00 1.117587089539D-08
    9.558976214071D-01 3.158437500000D+02 2.804539695764D-01-8.260344076487D-09
    2.042942239602D-10 1.000000000000D+00 2.290000000000D+03 0.000000000000D+00
    2.000000000000D+00 0.000000000000D+00 5.122274160385D-09 7.500000000000D+01
    2.160000000000D+05 0.000000000000D+00
13 23 11 28 14 00  0.0 6.000902503729D-04 3.979039320257D-12 0.000000000000D+00
    1.100000000000D+01 1.012500000000D+01 4.628407077447D-09 1.938175462296D+00
    4.954636096954D-07 7.713486091234D-03 6.904825568199D-06 5.153656160355D+03
    2.232000000000D+05-1.899898052216D-07 1.228768097226D+00-1.657754182816D-07
    9.701362411085D-01 2.512812500000D+02 9.536318816814D-01-7.831040479983D-09
    5.600233272195D-10 1.000000000000D+00 2.290000000000D+03 0.000000000000D+00
    2.000000000000D+00 0.000000000000D+00-1.117587089539D-08 1.100000000000D+01
    2.160000000000D+05 0.000000000000D+00
22 23 11 28 14 00  0.0 7.565878331661D-05-6.934897101019D-12 0.000000000000D+00
    6.300000000000D+01 1.002500000000D+02 3.904448350232D-09 2.860811066435D+00
    5.293637514114D-06 1.493673527148D-02 1.167319715023D-05 5.153736314774D+03
    2.232000000000D+05 1.024454832077D-07-3.008899244137D+00 1.043081283569D-07
    9.631741978771D-01 1.521875000000D+02-1.160595555898D+00-7.327448074767D-09
   -4.735911555440D-10 1.000000000000D+00 2.290000000000D+03 0.000000000000D+00
    2.000000000000D+00 0.000000000000D+00-1.117587089539D-08 6.300000000000D+01
    2.160000000000D+05 0.000000000000D+00
